NORAD_CAT_ID,OBJECT_NAME,OBJECT_TYPE,EPOCH,MEAN_MOTION,ECCENTRICITY,INCLINATION,RA_OF_ASC_NODE,ARG_OF_PERICENTER,MEAN_ANOMALY,BSTAR,MEAN_MOTION_DOT,MEAN_MOTION_DDOT,TLE_LINE0,TLE_LINE1,TLE_LINE2,SEMIMAJOR_AXIS,PERIOD,APOGEE,PERIGEE,DECAYED
55745.0,STARLINK-5565,PAYLOAD,2024-04-27 20:38:02,14.9832897,0.0003175,69.9994,161.2645,270.3493,89.7302,-4.9235e-05,-6.8e-06,0.0,0 STARLINK-5565,1 55745U 23028E   24118.85975252 -.00000680  00000-0 -49235-4 0  9993,2 55745  69.9994 161.2645 0003175 270.3493  89.7302 14.98328970 64058,6950.196,96.107,574.268,569.854,0.0
55745.0,STARLINK-5565,PAYLOAD,2024-04-28 12:39:23,14.98325947,0.0003168,69.9993,159.5815,272.1645,87.9151,-6.1021e-05,-8.21e-06,0.0,0 STARLINK-5565,1 55745U 23028E   24119.52735571 -.00000821  00000-0 -61021-4 0  9990,2 55745  69.9993 159.5815 0003168 272.1645  87.9151 14.98325947 64151,6950.205,96.107,574.272,569.869,0.0
55745.0,STARLINK-5565,PAYLOAD,2024-04-29 12:41:24,14.98327995,0.0003258,69.9989,157.0573,272.544,87.5346,2.7956e-06,-6e-07,0.0,0 STARLINK-5565,1 55745U 23028E   24120.52875433 -.00000060  00000-0  27956-5 0  9998,2 55745  69.9989 157.0573 0003258 272.5440  87.5346 14.98327995 64301,6950.199,96.107,574.328,569.8,0.0
55745.0,STARLINK-5565,PAYLOAD,2024-04-29 19:05:56,14.98328127,0.0003228,69.999,156.384,273.1331,86.9459,3.5944e-05,3.36e-06,0.0,0 STARLINK-5565,1 55745U 23028E   24120.79579383  .00000336  00000-0  35944-4 0  9992,2 55745  69.9990 156.3840 0003228 273.1331  86.9459 14.98328127 64345,6950.199,96.107,574.307,569.82,0.0
55745.0,STARLINK-5565,PAYLOAD,2024-04-30 12:43:25,14.98329652,0.0003324,69.9986,154.5324,272.3332,87.7446,7.7636e-05,8.33e-06,0.0,0 STARLINK-5565,1 55745U 23028E   24121.53015213  .00000833  00000-0  77636-4 0  9998,2 55745  69.9986 154.5324 0003324 272.3332  87.7446 14.98329652 64457,6950.194,96.107,574.369,569.749,0.0
55745.0,STARLINK-5565,PAYLOAD,2024-04-30 19:07:57,14.98309303,0.0003267,69.9986,153.8591,277.057,83.0217,0.00041268,4.832e-05,0.0,0 STARLINK-5565,1 55745U 23028E   24121.79719863  .00004832  00000-0  41268-3 0  9992,2 55745  69.9986 153.8591 0003267 277.0570  83.0217 14.98309303 64497,6950.257,96.108,574.393,569.851,0.0
55745.0,STARLINK-5565,PAYLOAD,2024-05-01 04:44:45,14.98330629,0.0003307,69.9985,152.8492,271.7392,88.3389,2.8091e-05,2.42e-06,0.0,0 STARLINK-5565,1 55745U 23028E   24122.19775273  .00000242  00000-0  28091-4 0  9995,2 55745  69.9985 152.8492 0003307 271.7392  88.3389 14.98330629 64553,6950.191,96.107,574.354,569.758,0.0
55745.0,STARLINK-5565,PAYLOAD,2024-05-01 07:57:01,14.98331166,0.0003306,69.9985,152.5125,271.8931,88.185,3.287e-05,2.99e-06,0.0,0 STARLINK-5565,1 55745U 23028E   24122.33127216  .00000299  00000-0  32870-4 0  9991,2 55745  69.9985 152.5125 0003306 271.8931  88.1850 14.98331166 64572,6950.189,96.107,574.352,569.757,0.0
55745.0,STARLINK-5565,PAYLOAD,2024-05-01 19:09:58,14.98333141,0.0003301,69.9984,151.3342,271.8163,88.2618,4.0084e-05,3.85e-06,0.0,0 STARLINK-5565,1 55745U 23028E   24122.79858981  .00000385  00000-0  40084-4 0  9993,2 55745  69.9984 151.3342 0003301 271.8163  88.2618 14.98333141 64647,6950.183,96.107,574.342,569.754,0.0
55745.0,STARLINK-5565,PAYLOAD,2024-05-02 04:46:46,14.98335864,0.0003284,69.9984,150.3241,271.1431,88.9352,3.7072e-05,3.49e-06,0.0,0 STARLINK-5565,1 55745U 23028E   24123.19914684  .00000349  00000-0  37072-4 0  9994,2 55745  69.9984 150.3241 0003284 271.1431  88.9352 14.98335864 64708,6950.175,96.107,574.322,569.757,0.0
55745.0,STARLINK-5565,PAYLOAD,2024-05-02 11:11:18,14.98336193,0.0003286,69.9984,149.6508,271.2744,88.8038,3.7899e-05,3.59e-06,0.0,0 STARLINK-5565,1 55745U 23028E   24123.46618557  .00000359  00000-0  37899-4 0  9992,2 55745  69.9984 149.6508 0003286 271.2744  88.8038 14.98336193 64745,6950.174,96.107,574.323,569.755,0.0
55745.0,STARLINK-5565,PAYLOAD,2024-05-03 04:48:47,14.98331714,0.0003247,69.9983,147.7991,270.7016,89.3771,-1.2563e-07,-9.5e-07,0.0,0 STARLINK-5565,1 55745U 23028E   24124.20054763 -.00000095  00000-0 -12563-6 0  9990,2 55745  69.9983 147.7991 0003247 270.7016  89.3771 14.98331714 64858,6950.188,96.107,574.309,569.796,0.0
55745.0,STARLINK-5565,PAYLOAD,2024-05-03 11:13:19,14.9833088,0.0003266,69.9983,147.1257,270.4844,89.5941,-1.1328e-05,-2.28e-06,0.0,0 STARLINK-5565,1 55745U 23028E   24124.46758805 -.00000228  00000-0 -11328-4 0  9990,2 55745  69.9983 147.1257 0003266 270.4844  89.5941 14.98330880 64892,6950.19,96.107,574.325,569.785,0.0
55745.0,STARLINK-5565,PAYLOAD,2024-05-03 19:13:59,14.98331451,0.0003257,69.9984,146.2842,270.6618,89.4167,-5.0645e-05,-6.97e-06,0.0,0 STARLINK-5565,1 55745U 23028E   24124.80138855 -.00000697  00000-0 -50645-4 0  9990,2 55745  69.9984 146.2842 0003257 270.6618  89.4167 14.98331451 64944,6950.188,96.107,574.317,569.79,0.0
55745.0,STARLINK-5565,PAYLOAD,2024-05-04 04:50:48,14.98329151,0.0003256,69.9983,145.2744,270.4495,89.6291,-6.8747e-05,-9.13e-06,0.0,0 STARLINK-5565,1 55745U 23028E   24125.20195025 -.00000913  00000-0 -68747-4 0  9990,2 55745  69.9983 145.2744 0003256 270.4495  89.6291 14.98329151 65005,6950.196,96.107,574.324,569.798,0.0
55745.0,STARLINK-5565,PAYLOAD,2024-05-05 04:52:49,14.9832786,0.0003302,69.9983,142.7495,270.2244,89.8537,3.6955e-06,-4.9e-07,0.0,0 STARLINK-5565,1 55745U 23028E   24126.20335011 -.00000049  00000-0  36955-5 0  9998,2 55745  69.9983 142.7495 0003302 270.2244  89.8537 14.98327860 65158,6950.2,96.107,574.359,569.77,0.0
55745.0,STARLINK-5565,PAYLOAD,2024-05-05 11:17:21,14.98328384,0.00033,69.9983,142.0763,270.2686,89.8095,2.7653e-06,-6e-07,0.0,0 STARLINK-5565,1 55745U 23028E   24126.47039016 -.00000060  00000-0  27653-5 0  9991,2 55745  69.9983 142.0763 0003300 270.2686  89.8095 14.98328384 65192,6950.198,96.107,574.356,569.769,0.0
55745.0,STARLINK-5565,PAYLOAD,2024-05-06 04:54:50,14.98329273,0.0003341,69.9981,140.2246,269.9881,90.0895,6.8639e-05,7.26e-06,0.0,0 STARLINK-5565,1 55745U 23028E   24127.20474821  .00000726  00000-0  68639-4 0  9996,2 55745  69.9981 140.2246 0003341 269.9881  90.0895 14.98329273 65306,6950.195,96.107,574.382,569.738,0.0
55745.0,STARLINK-5565,PAYLOAD,2024-05-06 09:43:14,14.98330825,0.0003327,69.9981,139.7195,270.4707,89.6071,7.7376e-05,8.3e-06,0.0,0 STARLINK-5565,1 55745U 23028E   24127.40502702  .00000830  00000-0  77376-4 0  9992,2 55745  69.9981 139.7195 0003327 270.4707  89.6071 14.98330825 65338,6950.19,96.107,574.368,569.743,0.0
55745.0,STARLINK-5565,PAYLOAD,2024-05-06 17:43:54,14.98331452,0.0003317,69.9982,138.8777,270.5301,89.5478,6.9102e-05,7.32e-06,0.0,0 STARLINK-5565,1 55745U 23028E   24127.73882667  .00000732  00000-0  69102-4 0  9998,2 55745  69.9982 138.8777 0003317 270.5301  89.5478 14.98331452 65387,6950.188,96.107,574.359,569.748,0.0
55745.0,STARLINK-5565,PAYLOAD,2024-05-07 04:56:50,14.98332614,0.0003276,69.9982,137.6994,268.4885,91.5898,5.1186e-05,5.18e-06,0.0,0 STARLINK-5565,1 55745U 23028E   24128.20614568  .00000518  00000-0  51186-4 0  9999,2 55745  69.9982 137.6994 0003276 268.4885  91.5898 14.98332614 65450,6950.185,96.107,574.327,569.773,0.0
55745.0,STARLINK-5565,PAYLOAD,2024-05-07 09:45:15,14.98333261,0.0003264,69.9982,137.1945,268.6095,91.4691,5.5964e-05,5.75e-06,0.0,0 STARLINK-5565,1 55745U 23028E   24128.40642472  .00000575  00000-0  55964-4 0  9997,2 55745  69.9982 137.1945 0003264 268.6095  91.4691 14.98333261 65485,6950.183,96.107,574.316,569.779,0.0
55745.0,STARLINK-5565,PAYLOAD,2024-05-07 17:45:55,14.9833276,0.0003242,69.9983,136.3526,269.4016,90.6772,3.1654e-05,2.85e-06,0.0,0 STARLINK-5565,1 55745U 23028E   24128.74022486  .00000285  00000-0  31654-4 0  9999,2 55745  69.9983 136.3526 0003242 269.4016  90.6772 14.98332760 65530,6950.184,96.107,574.303,569.796,0.0
55745.0,STARLINK-5565,PAYLOAD,2024-05-08 04:58:51,14.98332749,0.0003247,69.9983,135.1747,268.5742,91.5045,-4.1406e-06,-1.42e-06,0.0,0 STARLINK-5565,1 55745U 23028E   24129.20754473 -.00000142  00000-0 -41406-5 0  9990,2 55745  69.9983 135.1747 0003247 268.5742  91.5045 14.98332749 65601,6950.184,96.107,574.306,569.793,0.0
55745.0,STARLINK-5565,PAYLOAD,2024-05-08 09:47:15,14.98333276,0.0003245,69.9983,134.6697,268.5671,91.5116,2.8612e-06,-5.9e-07,0.0,0 STARLINK-5565,1 55745U 23028E   24129.40782368 -.00000059  00000-0  28612-5 0  9996,2 55745  69.9983 134.6697 0003245 268.5671  91.5116 14.98333276 65636,6950.183,96.107,574.303,569.792,0.0
55745.0,STARLINK-5565,PAYLOAD,2024-05-08 17:47:56,14.98331828,0.0003283,69.9982,133.8278,269.4416,90.6366,-2.2114e-05,-3.57e-06,0.0,0 STARLINK-5565,1 55745U 23028E   24129.74162444 -.00000357  00000-0 -22114-4 0  9992,2 55745  69.9982 133.8278 0003283 269.4416  90.6366 14.98331828 65683,6950.187,96.107,574.334,569.77,0.0
55745.0,STARLINK-5565,PAYLOAD,2024-05-09 05:00:52,14.98329362,0.0003283,69.9982,132.6494,269.0354,91.0429,-3.6567e-05,-5.29e-06,0.0,0 STARLINK-5565,1 55745U 23028E   24130.20894598 -.00000529  00000-0 -36567-4 0  9995,2 55745  69.9982 132.6494 0003283 269.0354  91.0429 14.98329362 65750,6950.195,96.107,574.342,569.778,0.0
55745.0,STARLINK-5565,PAYLOAD,2024-05-09 09:49:17,14.98330601,0.0003287,69.9983,132.1447,269.4378,90.6404,-3.4754e-05,-5.08e-06,0.0,0 STARLINK-5565,1 55745U 23028E   24130.40922511 -.00000508  00000-0 -34754-4 0  9997,2 55745  69.9983 132.1447 0003287 269.4378  90.6404 14.98330601 65787,6950.191,96.107,574.341,569.772,0.0
55745.0,STARLINK-5565,PAYLOAD,2024-05-09 17:49:57,14.98330607,0.0003289,69.9983,131.303,269.5006,90.5776,-1.5041e-05,-2.73e-06,0.0,0 STARLINK-5565,1 55745U 23028E   24130.74302461 -.00000273  00000-0 -15041-4 0  9997,2 55745  69.9983 131.3030 0003289 269.5006  90.5776 14.98330607 65830,6950.191,96.107,574.342,569.77,0.0
55745.0,STARLINK-5565,PAYLOAD,2024-05-10 09:51:17,14.98330815,0.0003223,69.9984,129.6197,266.6358,93.4433,2.4783e-05,2.03e-06,0.0,0 STARLINK-5565,1 55745U 23028E   24131.41062321  .00000203  00000-0  24783-4 0  9994,2 55745  69.9984 129.6197 0003223 266.6358  93.4433 14.98330815 65935,6950.19,96.107,574.295,569.815,0.0
